{
  "type": "FeatureCollection",
  "features": [
    {
      "type": "Feature",
      "properties": {
        "norad_id": 39773,
        "name": "EUTELSAT 3B",
        "group": "eutelsat",
        "lat": 0.06848561214272923,
        "lon": 46.40609489701433,
        "alt_km": 35803.931701220434,
        "timestamp": "2025-12-23T20:42:36.743646+00:00",
        "meta_object_name": "EUTELSAT 3B",
        "meta_object_id": "2014-030A",
        "meta_epoch": "2025-12-23T06:17:55.616928",
        "meta_mean_motion": 1.00272485,
        "meta_eccentricity": 0.00043061,
        "meta_inclination": 0.0619,
        "meta_ra_of_asc_node": 345.4554,
        "meta_arg_of_pericenter": 245.8049,
        "meta_mean_anomaly": 318.3832,
        "meta_ephemeris_type": 0,
        "meta_classification_type": "U",
        "meta_norad_cat_id": 39773,
        "meta_element_set_no": 999,
        "meta_rev_at_epoch": 4230,
        "meta_bstar": 0,
        "meta_mean_motion_dot": 4.1e-07,
        "meta_mean_motion_ddot": 0,
        "tle_line1": "1 39773U 14030A   25357.26244927  .00000041  00000+0  00000+0 0  9998",
        "tle_line2": "2 39773   0.0619 345.4554 0004306 245.8049 318.3832  1.00272485 42308"
      },
      "geometry": {
        "type": "Point",
        "coordinates": [
          46.40609489701433,
          0.06848561214272923
        ]
      }
    },
    {
      "type": "Feature",
      "properties": {
        "norad_id": 40425,
        "name": "EUTELSAT 115 WEST B",
        "group": "eutelsat",
        "lat": 0.007825612284809375,
        "lon": -71.63137228843502,
        "alt_km": 35785.552585597085,
        "timestamp": "2025-12-23T20:42:36.743658+00:00",
        "meta_object_name": "EUTELSAT 115 WEST B",
        "meta_object_id": "2015-010B",
        "meta_epoch": "2025-12-22T10:47:31.232256",
        "meta_mean_motion": 1.00269855,
        "meta_eccentricity": 2.522e-05,
        "meta_inclination": 0.0093,
        "meta_ra_of_asc_node": 153.5517,
        "meta_arg_of_pericenter": 151.4988,
        "meta_mean_anomaly": 193.1685,
        "meta_ephemeris_type": 0,
        "meta_classification_type": "U",
        "meta_norad_cat_id": 40425,
        "meta_element_set_no": 999,
        "meta_rev_at_epoch": 3962,
        "meta_bstar": 0,
        "meta_mean_motion_dot": -3e-08,
        "meta_mean_motion_ddot": 0,
        "tle_line1": "1 40425U 15010B   25356.44966704 -.00000003  00000+0  00000+0 0  9995",
        "tle_line2": "2 40425   0.0093 153.5517 0000252 151.4988 193.1685  1.00269855 39620"
      },
      "geometry": {
        "type": "Point",
        "coordinates": [
          -71.63137228843502,
          0.007825612284809375
        ]
      }
    },
    {
      "type": "Feature",
      "properties": {
        "norad_id": 40875,
        "name": "EUTELSAT 8 WEST B",
        "group": "eutelsat",
        "lat": 0.04307992587554407,
        "lon": 35.33332323567563,
        "alt_km": 35795.852455239605,
        "timestamp": "2025-12-23T20:42:36.743670+00:00",
        "meta_object_name": "EUTELSAT 8 WEST B",
        "meta_object_id": "2015-039B",
        "meta_epoch": "2025-12-23T06:14:48.414912",
        "meta_mean_motion": 1.0027121,
        "meta_eccentricity": 0.00042446,
        "meta_inclination": 0.0638,
        "meta_ra_of_asc_node": 4.6888,
        "meta_arg_of_pericenter": 268.249,
        "meta_mean_anomaly": 264.8166,
        "meta_ephemeris_type": 0,
        "meta_classification_type": "U",
        "meta_norad_cat_id": 40875,
        "meta_element_set_no": 999,
        "meta_rev_at_epoch": 3789,
        "meta_bstar": 0,
        "meta_mean_motion_dot": -4.4e-07,
        "meta_mean_motion_ddot": 0,
        "tle_line1": "1 40875U 15039B   25357.26028258 -.00000044  00000+0  00000+0 0  9994",
        "tle_line2": "2 40875   0.0638   4.6888 0004244 268.2490 264.8166  1.00271210 37896"
      },
      "geometry": {
        "type": "Point",
        "coordinates": [
          35.33332323567563,
          0.04307992587554407
        ]
      }
    },
    {
      "type": "Feature",
      "properties": {
        "norad_id": 41310,
        "name": "EUTELSAT 9B",
        "group": "eutelsat",
        "lat": -0.010514454376407342,
        "lon": 52.34115723775589,
        "alt_km": 35799.36443046532,
        "timestamp": "2025-12-23T20:42:36.743682+00:00",
        "meta_object_name": "EUTELSAT 9B",
        "meta_object_id": "2016-005A",
        "meta_epoch": "2025-12-22T03:54:38.524896",
        "meta_mean_motion": 1.00273048,
        "meta_eccentricity": 0.0004511,
        "meta_inclination": 0.0657,
        "meta_ra_of_asc_node": 72.7349,
        "meta_arg_of_pericenter": 203.4472,
        "meta_mean_anomaly": 242.4516,
        "meta_ephemeris_type": 0,
        "meta_classification_type": "U",
        "meta_norad_cat_id": 41310,
        "meta_element_set_no": 999,
        "meta_rev_at_epoch": 3634,
        "meta_bstar": 0,
        "meta_mean_motion_dot": 8.4e-07,
        "meta_mean_motion_ddot": 0,
        "tle_line1": "1 41310U 16005A   25356.16294589  .00000084  00000+0  00000+0 0  9996",
        "tle_line2": "2 41310   0.0657  72.7349 0004511 203.4472 242.4516  1.00273048 36349"
      },
      "geometry": {
        "type": "Point",
        "coordinates": [
          52.34115723775589,
          -0.010514454376407342
        ]
      }
    },
    {
      "type": "Feature",
      "properties": {
        "norad_id": 41382,
        "name": "EUTELSAT 65 WEST A",
        "group": "eutelsat",
        "lat": -0.010081890594026791,
        "lon": -21.86720527883802,
        "alt_km": 35781.65046546499,
        "timestamp": "2025-12-23T20:42:36.743695+00:00",
        "meta_object_name": "EUTELSAT 65 WEST A",
        "meta_object_id": "2016-014A",
        "meta_epoch": "2025-12-23T04:15:44.817984",
        "meta_mean_motion": 1.00272879,
        "meta_eccentricity": 0.0002197,
        "meta_inclination": 0.0501,
        "meta_ra_of_asc_node": 338.7634,
        "meta_arg_of_pericenter": 296.1787,
        "meta_mean_anomaly": 175.7805,
        "meta_ephemeris_type": 0,
        "meta_classification_type": "U",
        "meta_norad_cat_id": 41382,
        "meta_element_set_no": 999,
        "meta_rev_at_epoch": 3577,
        "meta_bstar": 0,
        "meta_mean_motion_dot": -2.55e-06,
        "meta_mean_motion_ddot": 0,
        "tle_line1": "1 41382U 16014A   25357.17760206 -.00000255  00000+0  00000+0 0  9992",
        "tle_line2": "2 41382   0.0501 338.7634 0002197 296.1787 175.7805  1.00272879 35770"
      },
      "geometry": {
        "type": "Point",
        "coordinates": [
          -21.86720527883802,
          -0.010081890594026791
        ]
      }
    },
    {
      "type": "Feature",
      "properties": {
        "norad_id": 41589,
        "name": "EUTELSAT 117 WEST B",
        "group": "eutelsat",
        "lat": 0.008276341235148492,
        "lon": -73.7198422314249,
        "alt_km": 35785.8723545733,
        "timestamp": "2025-12-23T20:42:36.743707+00:00",
        "meta_object_name": "EUTELSAT 117 WEST B",
        "meta_object_id": "2016-038B",
        "meta_epoch": "2025-12-23T06:49:57.184896",
        "meta_mean_motion": 1.00269393,
        "meta_eccentricity": 2.146e-05,
        "meta_inclination": 0.0095,
        "meta_ra_of_asc_node": 152.625,
        "meta_arg_of_pericenter": 152.4862,
        "meta_mean_anomaly": 132.4463,
        "meta_ephemeris_type": 0,
        "meta_classification_type": "U",
        "meta_norad_cat_id": 41589,
        "meta_element_set_no": 999,
        "meta_rev_at_epoch": 3489,
        "meta_bstar": 0,
        "meta_mean_motion_dot": 1e-07,
        "meta_mean_motion_ddot": 0,
        "tle_line1": "1 41589U 16038B   25357.28468964  .00000010  00000+0  00000+0 0  9993",
        "tle_line2": "2 41589   0.0095 152.6250 0000214 152.4862 132.4463  1.00269393 34899"
      },
      "geometry": {
        "type": "Point",
        "coordinates": [
          -73.7198422314249,
          0.008276341235148492
        ]
      }
    },
    {
      "type": "Feature",
      "properties": {
        "norad_id": 42741,
        "name": "EUTELSAT 172B",
        "group": "eutelsat",
        "lat": 0.00832682795703953,
        "lon": -144.70066849846756,
        "alt_km": 35786.42581664723,
        "timestamp": "2025-12-23T20:42:36.743718+00:00",
        "meta_object_name": "EUTELSAT 172B",
        "meta_object_id": "2017-029B",
        "meta_epoch": "2025-12-23T03:40:40.728288",
        "meta_mean_motion": 1.00270782,
        "meta_eccentricity": 1.929e-05,
        "meta_inclination": 0.0272,
        "meta_ra_of_asc_node": 120.5648,
        "meta_arg_of_pericenter": 358.2887,
        "meta_mean_anomaly": 200.2695,
        "meta_ephemeris_type": 0,
        "meta_classification_type": "U",
        "meta_norad_cat_id": 42741,
        "meta_element_set_no": 999,
        "meta_rev_at_epoch": 3196,
        "meta_bstar": 0,
        "meta_mean_motion_dot": 1.6e-07,
        "meta_mean_motion_ddot": 0,
        "tle_line1": "1 42741U 17029B   25357.15324917  .00000016  00000+0  00000+0 0  9996",
        "tle_line2": "2 42741   0.0272 120.5648 0000192 358.2887 200.2695  1.00270782 31960"
      },
      "geometry": {
        "type": "Point",
        "coordinates": [
          -144.70066849846756,
          0.00832682795703953
        ]
      }
    }
  ]
}